{"type": "FeatureCollection", "features": [ {"type": "Feature", "properties": {"norad_id": 37834, "name": "INTELSAT 18 (IS-18)", "group": "intelsat", "lat": -0.0034082715583529342, "lon": 130.59132978877074, "alt_km": 35792.25140212173, "timestamp": "2025-12-19T14:48:35.912235+00:00", "meta": {"OBJECT_NAME": "INTELSAT 18 (IS-18)", "OBJECT_ID": "2011-056A", "EPOCH": "2025-12-19T05:33:33.549120", "MEAN_MOTION": 1.00272088, "ECCENTRICITY": 0.0001651, "INCLINATION": 0.036, "RA_OF_ASC_NODE": 278.9354, "ARG_OF_PERICENTER": 5.8095, "MEAN_ANOMALY": 66.7252, "EPHEMERIS_TYPE": 0, "CLASSIFICATION_TYPE": "U", "NORAD_CAT_ID": 37834, "ELEMENT_SET_NO": 999, "REV_AT_EPOCH": 5200, "BSTAR": 0, "MEAN_MOTION_DOT": 7.8e-07, "MEAN_MOTION_DDOT": 0}, "tle": {"line1": "1 37834U 11056A   25353.23163830  .00000078  00000+0  00000+0 0  9995", "line2": "2 37834   0.0360 278.9354 0001651   5.8095  66.7252  1.00272088 52007"}}, "geometry": {"type": "Point", "coordinates": [130.59132978877074, -0.0034082715583529342]}}, {"type": "Feature", "properties": {"norad_id": 38098, "name": "INTELSAT 22 (IS-22)", "group": "intelsat", "lat": 0.00013164278622283915, "lon": 22.719531819159176, "alt_km": 35788.32470015788, "timestamp": "2025-12-19T14:48:35.912247+00:00", "meta": {"OBJECT_NAME": "INTELSAT 22 (IS-22)", "OBJECT_ID": "2012-011A", "EPOCH": "2025-12-19T03:20:08.830176", "MEAN_MOTION": 1.00270527, "ECCENTRICITY": 0.00018174, "INCLINATION": 0.0138, "RA_OF_ASC_NODE": 52.7133, "ARG_OF_PERICENTER": 225.8693, "MEAN_ANOMALY": 291.5453, "EPHEMERIS_TYPE": 0, "CLASSIFICATION_TYPE": "U", "NORAD_CAT_ID": 38098, "ELEMENT_SET_NO": 999, "REV_AT_EPOCH": 538, "BSTAR": 0, "MEAN_MOTION_DOT": -3.4e-07, "MEAN_MOTION_DDOT": 0}, "tle": {"line1": "1 38098U 12011A   25353.13899109 -.00000034  00000+0  00000+0 0  9997", "line2": "2 38098   0.0138  52.7133 0001817 225.8693 291.5453  1.00270527  5384"}}, "geometry": {"type": "Point", "coordinates": [22.719531819159176, 0.00013164278622283915]}}, {"type": "Feature", "properties": {"norad_id": 38356, "name": "INTELSAT 19 (IS-19)", "group": "intelsat", "lat": 0.030322688114417073, "lon": 116.5860055097416, "alt_km": 35796.097231418324, "timestamp": "2025-12-19T14:48:35.912259+00:00", "meta": {"OBJECT_NAME": "INTELSAT 19 (IS-19)", "OBJECT_ID": "2012-030A", "EPOCH": "2025-12-19T05:29:33.931680", "MEAN_MOTION": 1.00271258, "ECCENTRICITY": 0.00027425, "INCLINATION": 0.0111, "RA_OF_ASC_NODE": 346.2587, "ARG_OF_PERICENTER": 278.4801, "MEAN_ANOMALY": 71.7344, "EPHEMERIS_TYPE": 0, "CLASSIFICATION_TYPE": "U", "NORAD_CAT_ID": 38356, "ELEMENT_SET_NO": 999, "REV_AT_EPOCH": 4864, "BSTAR": 0, "MEAN_MOTION_DOT": -3.2e-07, "MEAN_MOTION_DDOT": 0}, "tle": {"line1": "1 38356U 12030A   25353.22886495 -.00000032  00000+0  00000+0 0  9997", "line2": "2 38356   0.0111 346.2587 0002742 278.4801  71.7344  1.00271258 48644"}}, "geometry": {"type": "Point", "coordinates": [116.5860055097416, 0.030322688114417073]}}, {"type": "Feature", "properties": {"norad_id": 38740, "name": "INTELSAT 20 (IS-20)", "group": "intelsat", "lat": 0.002408504749826954, "lon": 19.101284739578634, "alt_km": 35798.56489876674, "timestamp": "2025-12-19T14:48:35.912271+00:00", "meta": {"OBJECT_NAME": "INTELSAT 20 (IS-20)", "OBJECT_ID": "2012-043A", "EPOCH": "2025-12-18T23:17:38.747040", "MEAN_MOTION": 1.00276399, "ECCENTRICITY": 0.0003354, "INCLINATION": 0.0035, "RA_OF_ASC_NODE": 39.113, "ARG_OF_PERICENTER": 148.4948, "MEAN_ANOMALY": 318.1253, "EPHEMERIS_TYPE": 0, "CLASSIFICATION_TYPE": "U", "NORAD_CAT_ID": 38740, "ELEMENT_SET_NO": 999, "REV_AT_EPOCH": 4894, "BSTAR": 0, "MEAN_MOTION_DOT": -1e-08, "MEAN_MOTION_DDOT": 0}, "tle": {"line1": "1 38740U 12043A   25352.97058735 -.00000001  00000+0  00000+0 0  9993", "line2": "2 38740   0.0035  39.1130 0003354 148.4948 318.1253  1.00276399 48947"}}, "geometry": {"type": "Point", "coordinates": [19.101284739578634, 0.002408504749826954]}}, {"type": "Feature", "properties": {"norad_id": 38749, "name": "INTELSAT 21 (IS-21)", "group": "intelsat", "lat": -0.03337612892374233, "lon": -107.41820063371703, "alt_km": 35779.37054811238, "timestamp": "2025-12-19T14:48:35.912284+00:00", "meta": {"OBJECT_NAME": "INTELSAT 21 (IS-21)", "OBJECT_ID": "2012-045A", "EPOCH": "2025-12-19T01:00:09.840384", "MEAN_MOTION": 1.00268457, "ECCENTRICITY": 0.00018239, "INCLINATION": 0.0291, "RA_OF_ASC_NODE": 284.986, "ARG_OF_PERICENTER": 330.5335, "MEAN_ANOMALY": 149.4055, "EPHEMERIS_TYPE": 0, "CLASSIFICATION_TYPE": "U", "NORAD_CAT_ID": 38749, "ELEMENT_SET_NO": 999, "REV_AT_EPOCH": 4871, "BSTAR": 0, "MEAN_MOTION_DOT": -2.6e-06, "MEAN_MOTION_DDOT": 0}, "tle": {"line1": "1 38749U 12045A   25353.04178056 -.00000260  00000+0  00000+0 0  9999", "line2": "2 38749   0.0291 284.9860 0001823 330.5335 149.4055  1.00268457 48719"}}, "geometry": {"type": "Point", "coordinates": [-107.41820063371703, -0.03337612892374233]}}, {"type": "Feature", "properties": {"norad_id": 38867, "name": "INTELSAT 23 (IS-23)", "group": "intelsat", "lat": -0.030318179719173458, "lon": -102.36570150094084, "alt_km": 35784.45192942545, "timestamp": "2025-12-19T14:48:35.912296+00:00", "meta": {"OBJECT_NAME": "INTELSAT 23 (IS-23)", "OBJECT_ID": "2012-057A", "EPOCH": "2025-12-19T06:09:52.570080", "MEAN_MOTION": 1.00270551, "ECCENTRICITY": 5.697e-05, "INCLINATION": 0.0159, "RA_OF_ASC_NODE": 39.0797, "ARG_OF_PERICENTER": 251.6199, "MEAN_ANOMALY": 196.9149, "EPHEMERIS_TYPE": 0, "CLASSIFICATION_TYPE": "U", "NORAD_CAT_ID": 38867, "ELEMENT_SET_NO": 999, "REV_AT_EPOCH": 4815, "BSTAR": 0, "MEAN_MOTION_DOT": -2.6e-06, "MEAN_MOTION_DDOT": 0}, "tle": {"line1": "1 38867U 12057A   25353.25685845 -.00000260  00000+0  00000+0 0  9995", "line2": "2 38867   0.0159  39.0797 0000569 251.6199 196.9149  1.00270551 48155"}}, "geometry": {"type": "Point", "coordinates": [-102.36570150094084, -0.030318179719173458]}}, {"type": "Feature", "properties": {"norad_id": 39360, "name": "FM-6", "group": "intelsat", "lat": 0.003540104132632155, "lon": -165.5416108227641, "alt_km": 35774.06667865787, "timestamp": "2025-12-19T14:48:35.912308+00:00", "meta": {"OBJECT_NAME": "FM-6", "OBJECT_ID": "2013-058A", "EPOCH": "2025-12-18T14:27:20.008224", "MEAN_MOTION": 1.00273107, "ECCENTRICITY": 0.00028667, "INCLINATION": 0.0123, "RA_OF_ASC_NODE": 67.2703, "ARG_OF_PERICENTER": 112.0416, "MEAN_ANOMALY": 8.8268, "EPHEMERIS_TYPE": 0, "CLASSIFICATION_TYPE": "U", "NORAD_CAT_ID": 39360, "ELEMENT_SET_NO": 999, "REV_AT_EPOCH": 4426, "BSTAR": 0, "MEAN_MOTION_DOT": 8e-08, "MEAN_MOTION_DDOT": 0}, "tle": {"line1": "1 39360U 13058A   25352.60231491  .00000008  00000+0  00000+0 0  9997", "line2": "2 39360   0.0123  67.2703 0002866 112.0416   8.8268  1.00273107 44260"}}, "geometry": {"type": "Point", "coordinates": [-165.5416108227641, 0.003540104132632155]}}, {"type": "Feature", "properties": {"norad_id": 40271, "name": "INTELSAT 30 (IS-30)", "group": "intelsat", "lat": -0.015520931716429232, "lon": -144.43728437987454, "alt_km": 35790.25423938682, "timestamp": "2025-12-19T14:48:35.912320+00:00", "meta": {"OBJECT_NAME": "INTELSAT 30 (IS-30)", "OBJECT_ID": "2014-062A", "EPOCH": "2025-12-18T23:06:58.184352", "MEAN_MOTION": 1.00271369, "ECCENTRICITY": 0.00015892, "INCLINATION": 0.0165, "RA_OF_ASC_NODE": 27.1384, "ARG_OF_PERICENTER": 61.714, "MEAN_ANOMALY": 250.6555, "EPHEMERIS_TYPE": 0, "CLASSIFICATION_TYPE": "U", "NORAD_CAT_ID": 40271, "ELEMENT_SET_NO": 999, "REV_AT_EPOCH": 498, "BSTAR": 0, "MEAN_MOTION_DOT": -1.26e-06, "MEAN_MOTION_DDOT": 0}, "tle": {"line1": "1 40271U 14062A   25352.96317343 -.00000126  00000+0  00000+0 0  9998", "line2": "2 40271   0.0165  27.1384 0001589  61.7140 250.6555  1.00271369  4983"}}, "geometry": {"type": "Point", "coordinates": [-144.43728437987454, -0.015520931716429232]}}, {"type": "Feature", "properties": {"norad_id": 40333, "name": "DIRECTV 14", "group": "intelsat", "lat": -0.03381736229164066, "lon": -148.60144707414187, "alt_km": 35784.35608765473, "timestamp": "2025-12-19T14:48:35.912332+00:00", "meta": {"OBJECT_NAME": "DIRECTV 14", "OBJECT_ID": "2014-078B", "EPOCH": "2025-12-18T20:48:57.002688", "MEAN_MOTION": 1.00273138, "ECCENTRICITY": 5.178e-05, "INCLINATION": 0.0185, "RA_OF_ASC_NODE": 335.9821, "ARG_OF_PERICENTER": 184.6826, "MEAN_ANOMALY": 140.0852, "EPHEMERIS_TYPE": 0, "CLASSIFICATION_TYPE": "U", "NORAD_CAT_ID": 40333, "ELEMENT_SET_NO": 999, "REV_AT_EPOCH": 4023, "BSTAR": 0, "MEAN_MOTION_DOT": -1.01e-06, "MEAN_MOTION_DDOT": 0}, "tle": {"line1": "1 40333U 14078B   25352.86732642 -.00000101  00000+0  00000+0 0  9999", "line2": "2 40333   0.0185 335.9821 0000517 184.6826 140.0852  1.00273138 40232"}}, "geometry": {"type": "Point", "coordinates": [-148.60144707414187, -0.03381736229164066]}}, {"type": "Feature", "properties": {"norad_id": 40663, "name": "DIRECTV 15", "group": "intelsat", "lat": -0.024387847871521165, "lon": -152.2772790870027, "alt_km": 35786.711080768655, "timestamp": "2025-12-19T14:48:35.912343+00:00", "meta": {"OBJECT_NAME": "DIRECTV 15", "OBJECT_ID": "2015-026A", "EPOCH": "2025-12-19T05:58:50.122272", "MEAN_MOTION": 1.00270166, "ECCENTRICITY": 1.768e-05, "INCLINATION": 0.0257, "RA_OF_ASC_NODE": 4.7351, "ARG_OF_PERICENTER": 100.2973, "MEAN_ANOMALY": 329.8977, "EPHEMERIS_TYPE": 0, "CLASSIFICATION_TYPE": "U", "NORAD_CAT_ID": 40663, "ELEMENT_SET_NO": 999, "REV_AT_EPOCH": 3865, "BSTAR": 0, "MEAN_MOTION_DOT": 0, "MEAN_MOTION_DDOT": 0}, "tle": {"line1": "1 40663U 15026A   25353.24919123  .00000000  00000+0  00000+0 0  9990", "line2": "2 40663   0.0257   4.7351 0000176 100.2973 329.8977  1.00270166 38651"}}, "geometry": {"type": "Point", "coordinates": [-152.2772790870027, -0.024387847871521165]}}]}